SL-14 R/B               
1 16792U 86046B   26079.92087547  .00000407  00000+0  43985-4 0  9998
2 16792  82.4791  69.5663 0022842 187.0479 173.0419 14.85600580128077
SL-14 R/B               
1 16882U 86055B   26079.36769086  .00000374  00000+0  40285-4 0  9994
2 16882  82.5181 116.6361 0017490 299.2069  71.1690 14.85651520120952
AJISAI (EGS)            
1 16908U 86061A   26079.95225096 -.00000115  00000+0 -12483-3 0  9996
2 16908  50.0094  58.7137 0011309 316.0405  85.4446 12.44515668469404
SL-14 R/B               
1 17567U 87024B   26079.41153809  .00000406  00000+0  43509-4 0  9996
2 17567  82.5245  82.6830 0017134 221.5933 138.3981 14.86141678 89727
COSMOS 1833             
1 17589U 87027A   26079.90347406 -.00000249  00000+0 -10718-3 0  9997
2 17589  70.9193 302.4504 0023685 198.3571 161.6698 14.13051086 11904
SL-16 R/B               
1 17590U 87027B   26079.91521031 -.00000145  00000+0 -48190-4 0  9999
2 17590  70.9993 252.8376 0003008 116.6940 243.4492 14.17166532 16935
SL-14 R/B               
1 17912U 87038B   26079.95094042  .00000379  00000+0  41002-4 0  9992
2 17912  82.4984 286.1970 0020487 124.9046 235.4099 14.85378608 80906
COSMOS 1844             
1 17973U 87041A   26079.92673503  .00000114  00000+0  84151-4 0  9994
2 17973  70.9010  10.4741 0030585   1.4857 358.6349 14.14551697  5173
SL-14 R/B               
1 18153U 87055B   26079.79113072  .00000432  00000+0  46907-4 0  9995
2 18153  82.5023 338.5711 0020140 341.1832  18.8637 14.85640629 71586
COSMOS 1867             
1 18187U 87060A   26079.89855853 -.00000034  00000+0  24702-4 0  9997
2 18187  65.0093 275.3140 0014658 279.3261  80.6166 14.31504639 21541
SL-14 R/B               
1 18749U 88001B   26079.78724107  .00000493  00000+0  54132-4 0  9990
2 18749  82.5161 184.9255 0017626 197.1683 162.8940 14.85540147 43674
COSMOS 1933             
1 18958U 88020A   26079.93000432  .00004371  00000+0  21304-3 0  9991
2 18958  82.5108 239.7874 0004786 146.1742 213.9798 15.18081803 51939
